[{"OBJECT_NAME":"HAWK-3C","OBJECT_ID":"2021-059BX","EPOCH":"2026-03-09T11:39:18.012960","MEAN_MOTION":15.61557369,"ECCENTRICITY":0.00055667,"INCLINATION":97.687,"RA_OF_ASC_NODE":261.8501,"ARG_OF_PERICENTER":340.3597,"MEAN_ANOMALY":19.7445,"EPHEMERIS_TYPE":0,"CLASSIFICATION_TYPE":"U","NORAD_CAT_ID":48948,"ELEMENT_SET_NO":999,"REV_AT_EPOCH":26225,"BSTAR":0.00044158538,"MEAN_MOTION_DOT":0.00037876,"MEAN_MOTION_DDOT":0},{"OBJECT_NAME":"STARLINK-36625","OBJECT_ID":"2026-022W","EPOCH":"2026-03-09T22:00:01.999584","MEAN_MOTION":15.72387083,"ECCENTRICITY":0.00018037,"INCLINATION":97.2852,"RA_OF_ASC_NODE":102.9474,"ARG_OF_PERICENTER":69.2323,"MEAN_ANOMALY":67.0001,"EPHEMERIS_TYPE":0,"CLASSIFICATION_TYPE":"U","NORAD_CAT_ID":67668,"ELEMENT_SET_NO":999,"REV_AT_EPOCH":608,"BSTAR":-0.016379487,"MEAN_MOTION_DOT":-0.01887596,"MEAN_MOTION_DDOT":0}]
